NORAD_CAT_ID,OBJECT_NAME,OBJECT_TYPE,EPOCH,MEAN_MOTION,ECCENTRICITY,INCLINATION,RA_OF_ASC_NODE,ARG_OF_PERICENTER,MEAN_ANOMALY,BSTAR,MEAN_MOTION_DOT,MEAN_MOTION_DDOT,TLE_LINE0,TLE_LINE1,TLE_LINE2,SEMIMAJOR_AXIS,PERIOD,APOGEE,PERIGEE,DECAYED
53919.0,STARLINK-5023,PAYLOAD,2023-11-20 17:52:49,15.08840425,0.0001372,53.217,124.6444,91.0779,269.0371,4.8864e-05,4.9e-06,0.0,0 STARLINK-5023,1 53919U 22119AK  23324.74501804  .00000490  00000-0  48864-4 0  9992,2 53919  53.2170 124.6444 0001372  91.0779 269.0371 15.08840425 65026,6917.879,95.438,540.693,538.795,0.0
53919.0,STARLINK-5023,PAYLOAD,2023-11-21 03:25:08,15.08838296,0.000137,53.2169,122.8599,87.6414,272.4735,2.9846e-05,1.87e-06,0.0,0 STARLINK-5023,1 53919U 22119AK  23325.14245990  .00000187  00000-0  29846-4 0  9990,2 53919  53.2169 122.8599 0001370  87.6414 272.4735 15.08838296 65081,6917.886,95.438,540.698,538.803,0.0
53919.0,STARLINK-5023,PAYLOAD,2023-11-21 16:08:13,15.08838446,0.0001401,53.2169,120.4808,88.6913,271.4239,9.4066e-06,-1.38e-06,0.0,0 STARLINK-5023,1 53919U 22119AK  23325.67238188 -.00000138  00000-0  94066-5 0  9993,2 53919  53.2169 120.4808 0001401  88.6913 271.4239 15.08838446 64745,6917.885,95.438,540.719,538.781,0.0
53919.0,STARLINK-5023,PAYLOAD,2023-11-21 20:54:22,15.08844228,0.0001585,53.2171,119.5886,94.7305,265.3868,1.1755e-05,-1.01e-06,0.0,0 STARLINK-5023,1 53919U 22119AK  23325.87109835 -.00000101  00000-0  11755-4 0  9994,2 53919  53.2171 119.5886 0001585  94.7305 265.3868 15.08844228 65194,6917.867,95.437,540.829,538.636,0.0
53919.0,STARLINK-5023,PAYLOAD,2023-11-22 14:23:37,15.08841068,0.0001415,53.2176,116.3179,86.2747,273.8407,7.7248e-05,9.42e-06,0.0,0 STARLINK-5023,1 53919U 22119AK  23326.59973923  .00000942  00000-0  77248-4 0  9992,2 53919  53.2176 116.3179 0001415  86.2747 273.8407 15.08841068 65302,6917.877,95.437,540.721,538.763,0.0
53919.0,STARLINK-5023,PAYLOAD,2023-11-22 17:34:23,15.08846574,0.000144,53.2179,115.7213,84.4791,275.6365,0.00013524,1.865e-05,0.0,0 STARLINK-5023,1 53919U 22119AK  23326.73221471  .00001865  00000-0  13524-3 0  9993,2 53919  53.2179 115.7213 0001440  84.4791 275.6365 15.08846574 65326,6917.86,95.437,540.721,538.729,0.0
53919.0,STARLINK-5023,PAYLOAD,2023-11-23 09:28:16,15.08805681,0.0001987,53.2178,112.752,94.4137,265.7082,0.00051656,7.935e-05,0.0,0 STARLINK-5023,1 53919U 22119AK  23327.39463524  .00007935  00000-0  51656-3 0  9995,2 53919  53.2178 112.7520 0001987  94.4137 265.7082 15.08805681 65009,6917.985,95.44,541.225,538.476,0.0
53919.0,STARLINK-5023,PAYLOAD,2023-11-23 14:14:25,15.08835718,0.0001479,53.2177,111.8585,87.0272,273.0889,4.9114e-05,4.94e-06,0.0,0 STARLINK-5023,1 53919U 22119AK  23327.59334638  .00000494  00000-0  49114-4 0  9990,2 53919  53.2177 111.8585 0001479  87.0272 273.0889 15.08835718 65453,6917.893,95.438,540.782,538.735,0.0
53919.0,STARLINK-5023,PAYLOAD,2023-11-23 17:25:11,15.08841757,0.0001742,53.2181,111.2641,114.6575,245.4598,-1.8821e-05,-5.88e-06,0.0,0 STARLINK-5023,1 53919U 22119AK  23327.72582368 -.00000588  00000-0 -18821-4 0  9997,2 53919  53.2181 111.2641 0001742 114.6575 245.4598 15.08841757 65057,6917.875,95.437,540.945,538.535,0.0
53919.0,STARLINK-5023,PAYLOAD,2023-11-24 14:05:12,15.08822745,0.0001413,53.2182,107.3992,91.2806,268.8348,0.00025086,3.705e-05,0.0,0 STARLINK-5023,1 53919U 22119AK  23328.58695028  .00003705  00000-0  25086-3 0  9992,2 53919  53.2182 107.3992 0001413  91.2806 268.8348 15.08822745 65604,6917.933,95.439,540.776,538.821,0.0
53919.0,STARLINK-5023,PAYLOAD,2023-11-24 17:15:58,15.08848846,0.000157,53.2168,106.8026,124.3162,235.7979,-2.8771e-05,-7.46e-06,0.0,0 STARLINK-5023,1 53919U 22119AK  23328.71942172 -.00000746  00000-0 -28771-4 0  9991,2 53919  53.2168 106.8026 0001570 124.3162 235.7979 15.08848846 65622,6917.853,95.437,540.804,538.632,0.0
53919.0,STARLINK-5023,PAYLOAD,2023-11-25 13:55:58,15.08843132,0.0001335,53.2164,102.9358,103.8102,256.3038,0.00012679,1.731e-05,0.0,0 STARLINK-5023,1 53919U 22119AK  23329.58054356  .00001731  00000-0  12679-3 0  9997,2 53919  53.2164 102.9358 0001335 103.8102 256.3038 15.08843132 65750,6917.871,95.437,540.659,538.812,0.0
53919.0,STARLINK-5023,PAYLOAD,2023-11-25 15:31:22,15.08844516,0.0001334,53.2163,102.6389,93.6094,266.5051,0.00014425,2.009e-05,0.0,0 STARLINK-5023,1 53919U 22119AK  23329.64678309  .00002009  00000-0  14425-3 0  9994,2 53919  53.2163 102.6389 0001334  93.6094 266.5051 15.08844516 65761,6917.867,95.437,540.654,538.809,0.0
53919.0,STARLINK-5023,PAYLOAD,2023-11-26 12:11:22,15.08852396,0.0001457,53.215,98.7724,104.2375,255.8779,0.00023608,3.472e-05,0.0,0 STARLINK-5023,1 53919U 22119AK  23330.50789899  .00003472  00000-0  23608-3 0  9996,2 53919  53.2150  98.7724 0001457 104.2375 255.8779 15.08852396 65473,6917.842,95.437,540.715,538.7,0.0
53919.0,STARLINK-5023,PAYLOAD,2023-11-26 13:46:45,15.08854516,0.0001435,53.2154,98.4749,100.7515,259.3639,0.00025289,3.741e-05,0.0,0 STARLINK-5023,1 53919U 22119AK  23330.57413764  .00003741  00000-0  25289-3 0  9994,2 53919  53.2154  98.4749 0001435 100.7515 259.3639 15.08854516 65902,6917.836,95.437,540.694,538.708,0.0
53919.0,STARLINK-5023,PAYLOAD,2023-11-26 15:22:08,15.08857117,0.0001434,53.2154,98.1774,99.8569,260.2585,0.00028431,4.242e-05,0.0,0 STARLINK-5023,1 53919U 22119AK  23330.64037599  .00004242  00000-0  28431-3 0  9999,2 53919  53.2154  98.1774 0001434  99.8569 260.2585 15.08857117 65915,6917.828,95.436,540.685,538.701,0.0
53919.0,STARLINK-5023,PAYLOAD,2023-11-27 12:02:10,15.08832929,0.0001394,53.2163,94.3121,87.9673,272.1479,-0.00010045,-1.886e-05,0.0,0 STARLINK-5023,1 53919U 22119AK  23331.50150828 -.00001886  00000-0 -10045-3 0  9991,2 53919  53.2163  94.3121 0001394  87.9673 272.1479 15.08832929 65624,6917.902,95.438,540.731,538.803,0.0
53919.0,STARLINK-5023,PAYLOAD,2023-11-27 13:37:33,15.08835573,0.0001629,53.2176,94.0088,101.9964,258.1211,-8.6882e-05,-1.67e-05,0.0,0 STARLINK-5023,1 53919U 22119AK  23331.56774584 -.00001670  00000-0 -86882-4 0  9992,2 53919  53.2176  94.0088 0001629 101.9964 258.1211 15.08835573 66052,6917.894,95.438,540.886,538.632,0.0
53919.0,STARLINK-5023,PAYLOAD,2023-11-27 15:12:56,15.08832005,0.0001448,53.2164,93.7169,87.2715,272.8443,-0.00010709,-1.992e-05,0.0,0 STARLINK-5023,1 53919U 22119AK  23331.63398927 -.00001992  00000-0 -10709-3 0  9994,2 53919  53.2164  93.7169 0001448  87.2715 272.8443 15.08832005 66062,6917.905,95.438,540.772,538.768,0.0
53919.0,STARLINK-5023,PAYLOAD,2023-11-28 11:52:56,15.08844221,0.0001393,53.2177,89.8467,93.4629,266.6522,-2.7297e-05,-7.22e-06,0.0,0 STARLINK-5023,1 53919U 22119AK  23332.49510342 -.00000722  00000-0 -27297-4 0  9997,2 53919  53.2177  89.8467 0001393  93.4629 266.6522 15.08844221 65774,6917.867,95.437,540.696,538.769,0.0
53919.0,STARLINK-5023,PAYLOAD,2023-11-28 13:28:19,15.0885064,0.0001694,53.218,89.5523,105.1454,254.9726,7.3716e-05,8.86e-06,0.0,0 STARLINK-5023,1 53919U 22119AK  23332.56134044  .00000886  00000-0  73716-4 0  9992,2 53919  53.2180  89.5523 0001694 105.1454 254.9726 15.08850640 66206,6917.848,95.437,540.885,538.541,0.0
53919.0,STARLINK-5023,PAYLOAD,2023-11-28 15:03:42,15.08853862,0.0001479,53.2173,89.2553,78.07,282.0457,0.00015426,2.169e-05,0.0,0 STARLINK-5023,1 53919U 22119AK  23332.62757865  .00002169  00000-0  15426-3 0  9990,2 53919  53.2173  89.2553 0001479  78.0700 282.0457 15.08853862 65796,6917.838,95.437,540.726,538.68,0.0
53919.0,STARLINK-5023,PAYLOAD,2023-11-29 11:43:44,15.08837897,0.0001612,53.2185,85.3924,94.9628,265.1548,0.00021231,3.092e-05,0.0,0 STARLINK-5023,1 53919U 22119AK  23333.48871046  .00003092  00000-0  21231-3 0  9990,2 53919  53.2185  85.3924 0001612  94.9628 265.1548 15.08837897 65921,6917.887,95.438,540.867,538.637,0.0
53919.0,STARLINK-5023,PAYLOAD,2023-11-29 13:19:07,15.08842532,0.0001548,53.2183,85.0947,91.2349,268.8821,0.0002474,3.652e-05,0.0,0 STARLINK-5023,1 53919U 22119AK  23333.55494873  .00003652  00000-0  24740-3 0  9997,2 53919  53.2183  85.0947 0001548  91.2349 268.8821 15.08842532 66353,6917.873,95.437,540.809,538.667,0.0
53919.0,STARLINK-5023,PAYLOAD,2023-11-30 14:45:18,15.0884141,0.000187,53.2185,80.3402,75.2655,284.8545,0.00013766,1.904e-05,0.0,0 STARLINK-5023,1 53919U 22119AK  23334.61479311  .00001904  00000-0  13766-3 0  9999,2 53919  53.2185  80.3402 0001870  75.2655 284.8545 15.08841410 66095,6917.876,95.437,541.035,538.447,0.0
53919.0,STARLINK-5023,PAYLOAD,2023-12-01 13:00:42,15.08840858,0.0001723,53.2176,76.1772,64.5265,295.5906,0.00020097,2.912e-05,0.0,0 STARLINK-5023,1 53919U 22119AK  23335.54215523  .00002912  00000-0  20097-3 0  9990,2 53919  53.2176  76.1772 0001723  64.5265 295.5906 15.08840858 66234,6917.878,95.438,540.935,538.551,0.0
53919.0,STARLINK-5023,PAYLOAD,2023-12-02 11:16:02,15.08928636,0.0001272,53.2182,72.0135,132.0695,228.0406,0.0018045,0.00028617,0.0,0 STARLINK-5023,1 53919U 22119AK  23336.46947780  .00028617  00000-0  18045-2 0  9998,2 53919  53.2182  72.0135 0001272 132.0695 228.0406 15.08928636 66378,6917.609,95.432,540.354,538.595,0.0
53919.0,STARLINK-5023,PAYLOAD,2023-12-03 11:06:53,15.08891741,9.85e-05,53.2206,67.5546,132.8615,227.246,-0.0032724,-0.00052064,0.0,0 STARLINK-5023,1 53919U 22119AK  23337.46311378 -.00052064  00000-0 -32724-2 0  9992,2 53919  53.2206  67.5546 0000985 132.8615 227.2460 15.08891741 66524,6917.722,95.434,540.269,538.906,0.0
53919.0,STARLINK-5023,PAYLOAD,2023-12-03 12:42:16,15.08856407,0.0001973,53.2185,67.2514,150.3997,209.7107,-0.0019837,-0.00031735,0.0,0 STARLINK-5023,1 53919U 22119AK  23337.52935491 -.00031735  00000-0 -19837-2 0  9999,2 53919  53.2185  67.2514 0001973 150.3997 209.7107 15.08856407 66958,6917.83,95.437,541.06,538.33,0.0
53919.0,STARLINK-5023,PAYLOAD,2023-12-03 15:53:02,15.08853756,0.0001455,53.2182,66.6566,138.722,221.3883,-0.0019543,-0.00031268,0.0,0 STARLINK-5023,1 53919U 22119AK  23337.66183657 -.00031268  00000-0 -19543-2 0  9998,2 53919  53.2182  66.6566 0001455 138.7220 221.3883 15.08853756 66550,6917.838,95.437,540.71,538.697,0.0
